{
"type": "FeatureCollection",
"name": "tram_4326",
"crs": { "type": "name", "properties": { "name": "urn:ogc:def:crs:OGC:1.3:CRS84" } },
"features": [
{ "type": "Feature", "properties": { "number": 8 }, "geometry": { "type": "MultiLineString", "coordinates": [ [ [ 6.634439463615021, 46.519312111306952 ], [ 6.63807563119965, 46.51786644387176 ], [ 6.637594479065051, 46.516697456619909 ], [ 6.635827031496765, 46.513363982974795 ], [ 6.635840851048952, 46.513059648887868 ], [ 6.636974054328199, 46.512403422713682 ], [ 6.637139888954431, 46.5120134874659 ], [ 6.637043152089129, 46.511024370873947 ], [ 6.637153708506617, 46.510529805827588 ], [ 6.637084610745688, 46.510092302227548 ], [ 6.637245878474036, 46.509166683127972 ], [ 6.637310339364409, 46.508735712306816 ], [ 6.638617974569154, 46.508013194734431 ], [ 6.639547031390872, 46.50775810971605 ], [ 6.64062166184374, 46.506982529139556 ], [ 6.641017185552086, 46.506792484528852 ], [ 6.642584354962519, 46.506551075551798 ], [ 6.645017198904428, 46.506515120931574 ], [ 6.653594031222701, 46.506388998520478 ], [ 6.655894508982933, 46.506564926936541 ], [ 6.658593852820684, 46.506795445599018 ], [ 6.659358583069427, 46.5068249599707 ], [ 6.660730809310161, 46.506647873500206 ], [ 6.661195365068743, 46.506638035346043 ] ] ] } },
{ "type": "Feature", "properties": { "number": 3 }, "geometry": { "type": "MultiLineString", "coordinates": [ [ [ 6.634439463615021, 46.519312111306952 ], [ 6.632398346278501, 46.519595743729248 ], [ 6.631504340655777, 46.520274824394669 ], [ 6.629658277097163, 46.52204838327814 ], [ 6.62626802200839, 46.523198768895057 ], [ 6.624346084731231, 46.523573417601142 ], [ 6.623626652959703, 46.523699134128741 ], [ 6.620006654998203, 46.525553419118971 ], [ 6.617635626696835, 46.527337528395464 ], [ 6.614537080157263, 46.528898307183781 ], [ 6.612724779098548, 46.530387132066345 ], [ 6.60956942208072, 46.532526419456019 ], [ 6.608349960431317, 46.533302414642819 ], [ 6.605258479141876, 46.534509807213468 ] ] ] } },
{ "type": "Feature", "properties": { "number": 1 }, "geometry": { "type": "MultiLineString", "coordinates": [ [ [ 6.629240822992394, 46.515410163816682 ], [ 6.6276649499919, 46.5158757093579 ], [ 6.626009487445924, 46.516354943249056 ], [ 6.626592078669324, 46.516960716424201 ], [ 6.626941942133619, 46.517350171616016 ], [ 6.627250645190348, 46.5174422242535 ], [ 6.62808414344352, 46.517488250513772 ], [ 6.62848545741727, 46.517551979117464 ], [ 6.630708119425727, 46.517243956840524 ], [ 6.633773509999923, 46.517006291617889 ], [ 6.637594479065051, 46.516697456619909 ], [ 6.63807563119965, 46.51786644387176 ], [ 6.634439463615021, 46.519312111306952 ], [ 6.632398346278501, 46.519595743729248 ], [ 6.631504340655777, 46.520274824394669 ], [ 6.629658277097163, 46.52204838327814 ], [ 6.629761923371919, 46.522196906989812 ], [ 6.630469808526818, 46.522367521271768 ], [ 6.630976008897639, 46.522480392407772 ], [ 6.6314023357011, 46.522667524464588 ], [ 6.631666952337731, 46.522892587841291 ], [ 6.631821312042433, 46.523112592712863 ], [ 6.631332506310878, 46.523254204572687 ], [ 6.631501566939837, 46.523517197047326 ], [ 6.631898759188688, 46.524019198028441 ], [ 6.631590181070464, 46.524389786971838 ], [ 6.631058967413115, 46.5247376048669 ], [ 6.631129414164938, 46.525990893280301 ], [ 6.631297462514493, 46.527336037575637 ], [ 6.631173190612028, 46.527678036959294 ], [ 6.630746005947306, 46.52823912503387 ], [ 6.629524991215106, 46.530904371078414 ], [ 6.628442000357435, 46.531567774727023 ] ] ] } },
{ "type": "Feature", "properties": { "number": 2 }, "geometry": { "type": "MultiLineString", "coordinates": [ [ [ 6.634439463615021, 46.519312111306952 ], [ 6.632398346278501, 46.519595743729248 ], [ 6.631504340655777, 46.520274824394669 ], [ 6.629658277097163, 46.52204838327814 ], [ 6.629761923371919, 46.522196906989812 ], [ 6.630976008897639, 46.522480392407772 ], [ 6.6314023357011, 46.522667524464588 ], [ 6.631821312042433, 46.523112592712863 ], [ 6.631332506310878, 46.523254204572687 ], [ 6.631501566939837, 46.523517197047326 ], [ 6.631898759188688, 46.524019198028441 ], [ 6.631590181070464, 46.524389786971838 ], [ 6.631058967413115, 46.5247376048669 ], [ 6.630312595141196, 46.52513045390539 ], [ 6.629210381421874, 46.52608502845203 ], [ 6.628724790762313, 46.526403216240027 ], [ 6.627581089761915, 46.526900774785702 ], [ 6.626390264886021, 46.527264908722785 ], [ 6.625711053660512, 46.52737414842791 ], [ 6.623858659409123, 46.528005306867193 ], [ 6.623038313383508, 46.528320883336676 ], [ 6.620786393711383, 46.529390247798133 ], [ 6.618954586584144, 46.530437569634287 ], [ 6.617925744752612, 46.531066449038143 ], [ 6.617731427578301, 46.531411794838206 ] ] ] } },
{ "type": "Feature", "properties": { "number": 4 }, "geometry": { "type": "MultiLineString", "coordinates": [ [ [ 6.634439463615021, 46.519312111306952 ], [ 6.63807563119965, 46.51786644387176 ], [ 6.637594479065051, 46.516697456619909 ], [ 6.633773509999923, 46.517006291617889 ] ] ] } },
{ "type": "Feature", "properties": { "number": 14 }, "geometry": { "type": "MultiLineString", "coordinates": [ [ [ 6.628375908352671, 46.505322840696117 ], [ 6.627660605917185, 46.506007179952903 ], [ 6.628204235768155, 46.506986902454344 ], [ 6.627438862162186, 46.507085366050852 ], [ 6.627331566796864, 46.507799221791657 ], [ 6.627467474259605, 46.508247223020355 ], [ 6.62771067708767, 46.508798604079153 ], [ 6.628062839929149, 46.509747341847302 ], [ 6.629345604263532, 46.511611864544378 ], [ 6.630018238677807, 46.512743485853797 ], [ 6.631223320017098, 46.514003620218446 ], [ 6.632271750563947, 46.514815056246753 ], [ 6.632800900963003, 46.515196538928734 ], [ 6.633141069076681, 46.515751418049298 ], [ 6.63345603955231, 46.516540377043505 ], [ 6.633773509999923, 46.517006291617889 ] ] ] } },
{ "type": "Feature", "properties": { "number": 11 }, "geometry": { "type": "MultiLineString", "coordinates": [ [ [ 6.629240822992394, 46.515410163816682 ], [ 6.632536325763475, 46.515005797922491 ], [ 6.631223320017098, 46.514003620218446 ], [ 6.630018238677807, 46.512743485853797 ], [ 6.629345604263532, 46.511611864544378 ], [ 6.628062839929149, 46.509747341847302 ], [ 6.627467474259605, 46.508247223020355 ], [ 6.627331566796864, 46.507799221791657 ], [ 6.627438862162186, 46.507085366050852 ], [ 6.628204235768155, 46.506986902454344 ], [ 6.627932420842671, 46.506497043410825 ], [ 6.627660605917185, 46.506007179952903 ], [ 6.628375908352671, 46.505322840696117 ] ] ] } },
{ "type": "Feature", "properties": { "number": 9 }, "geometry": { "type": "MultiLineString", "coordinates": [ [ [ 6.580129636460571, 46.537096567429963 ], [ 6.581877211157636, 46.536702117077766 ], [ 6.583815926837191, 46.536570632990305 ], [ 6.586136924481728, 46.535950775146873 ], [ 6.586846876702411, 46.53619496241469 ], [ 6.594137539891724, 46.531461290485247 ], [ 6.602293669630357, 46.528798503728829 ], [ 6.608644344984735, 46.526360279102221 ], [ 6.612641868310482, 46.526340772863932 ], [ 6.616355879343623, 46.526145710095754 ], [ 6.617433226055526, 46.525775088906492 ], [ 6.620702387294285, 46.524134828144241 ], [ 6.621862539201205, 46.523898311683567 ], [ 6.623626652959703, 46.523699134128741 ], [ 6.62626802200839, 46.523198768895057 ], [ 6.629658277097163, 46.52204838327814 ], [ 6.631504340655777, 46.520274824394669 ], [ 6.632398346278501, 46.519595743729248 ], [ 6.634439463615021, 46.519312111306952 ] ] ] } },
{ "type": "Feature", "properties": { "number": 19 }, "geometry": { "type": "MultiLineString", "coordinates": [ [ [ 6.634439463615021, 46.519312111306952 ], [ 6.63807563119965, 46.51786644387176 ], [ 6.641801890836122, 46.516348461711935 ], [ 6.643619795755848, 46.515697944651549 ], [ 6.644328778674541, 46.515610374452557 ], [ 6.645074119691627, 46.51562288448963 ], [ 6.646237578840252, 46.515935634480321 ], [ 6.647746439923623, 46.515898104576472 ], [ 6.64974202699382, 46.515473983499554 ], [ 6.651184259332742, 46.51463938772136 ], [ 6.652249544583082, 46.51445893289484 ], [ 6.653675387918152, 46.514470211339045 ], [ 6.654380115083762, 46.513973957579353 ], [ 6.655183176272479, 46.512970157711997 ], [ 6.65613373849586, 46.512338543797817 ], [ 6.658477366046608, 46.512394938195733 ], [ 6.659821264362422, 46.512191918089357 ], [ 6.663394067202024, 46.51051133364242 ], [ 6.665803555805477, 46.50914043647299 ], [ 6.666882223343453, 46.508919024173728 ], [ 6.668452914670683, 46.508945072726334 ], [ 6.669323418297824, 46.508762732595933 ], [ 6.672067397122504, 46.507030470849408 ], [ 6.674018915155739, 46.506216609228851 ], [ 6.677790942362107, 46.504860797630791 ], [ 6.680036814229992, 46.50419233169891 ], [ 6.681297038066638, 46.503852553091491 ], [ 6.682452002388072, 46.503398811526509 ], [ 6.683405115061254, 46.502944186484676 ] ] ] } },
{ "type": "Feature", "properties": { "number": 7 }, "geometry": { "type": "MultiLineString", "coordinates": [ [ [ 6.629596788421499, 46.517397968197251 ], [ 6.62848545741727, 46.517551979117464 ], [ 6.626224751418895, 46.518476046079293 ], [ 6.622646452397, 46.519962711946086 ], [ 6.622574114933991, 46.520385802377668 ], [ 6.624764715506996, 46.523483546897488 ], [ 6.62626802200839, 46.523198768895057 ], [ 6.629658277097163, 46.52204838327814 ], [ 6.631504340655777, 46.520274824394669 ], [ 6.632398346278501, 46.519595743729248 ], [ 6.634439463615021, 46.519312111306952 ], [ 6.636181947689944, 46.519128415854659 ], [ 6.636912575883264, 46.519021950134629 ], [ 6.637282187792827, 46.519122501097911 ], [ 6.637368144050863, 46.519388664514281 ], [ 6.63724780528961, 46.519501044231951 ], [ 6.636800832747815, 46.519767205794004 ], [ 6.636903980257459, 46.520074768641898 ], [ 6.637256400915414, 46.520784522415497 ], [ 6.637677586579798, 46.521062506783338 ], [ 6.63864029666982, 46.521239942870217 ], [ 6.638923952321345, 46.521446950905855 ], [ 6.638984121701971, 46.521795905523362 ], [ 6.638927822282032, 46.522136656392206 ], [ 6.639479952691467, 46.522161009382174 ], [ 6.639748939301193, 46.522044114930765 ], [ 6.640468098021858, 46.521394619753636 ], [ 6.641111677673585, 46.52123792348317 ], [ 6.643616980258414, 46.521004900119408 ], [ 6.644332565998567, 46.52104725592163 ], [ 6.645532903369144, 46.521285506693921 ], [ 6.64700096043549, 46.521832533116878 ], [ 6.649371220412434, 46.52365917167031 ], [ 6.649953806564728, 46.525464845684162 ], [ 6.650466696975365, 46.526020365742234 ], [ 6.651067957170389, 46.526545577235908 ], [ 6.651277219297089, 46.526624662696612 ], [ 6.651739953858947, 46.526533410231735 ], [ 6.651866690076527, 46.526425934909852 ], [ 6.652038903385487, 46.525434686106514 ], [ 6.652331194672043, 46.525068672126856 ], [ 6.653032693759775, 46.524783099067456 ], [ 6.654692424636955, 46.523536156894068 ], [ 6.655507964436526, 46.523057317452633 ], [ 6.658639637266878, 46.522354014371366 ], [ 6.659995731767926, 46.522372662365655 ], [ 6.660855953523964, 46.522153151606844 ], [ 6.661946856068723, 46.521736488975257 ] ] ] } },
{ "type": "Feature", "properties": { "number": 6 }, "geometry": { "type": "MultiLineString", "coordinates": [ [ [ 6.629596788421499, 46.517397968197251 ], [ 6.630708119425727, 46.517243956840524 ], [ 6.633773509999923, 46.517006291617889 ], [ 6.637594479065051, 46.516697456619909 ], [ 6.63807563119965, 46.51786644387176 ], [ 6.634439463615021, 46.519312111306952 ], [ 6.632398346278501, 46.519595743729248 ], [ 6.631504340655777, 46.520274824394669 ], [ 6.629658277097163, 46.52204838327814 ], [ 6.629761923371919, 46.522196906989812 ], [ 6.630976008897639, 46.522480392407772 ], [ 6.6314023357011, 46.522667524464588 ], [ 6.631821312042433, 46.523112592712863 ], [ 6.632515437837305, 46.524098196902756 ], [ 6.633167543002168, 46.524937544376662 ], [ 6.63436198411295, 46.52550721333651 ], [ 6.63494525826333, 46.525576676433914 ], [ 6.636509387751556, 46.525520292511956 ], [ 6.637082191185534, 46.525412808744392 ], [ 6.637524812020881, 46.525126184324506 ], [ 6.638036863575498, 46.524134929880454 ], [ 6.63834288983125, 46.523418838595326 ], [ 6.638292886621793, 46.523116072784745 ], [ 6.638112875067748, 46.522524298373966 ], [ 6.638292886621793, 46.522228408751346 ], [ 6.638672911013667, 46.522125191062003 ], [ 6.638927822282032, 46.522136656392206 ], [ 6.639479952691467, 46.522161009382174 ], [ 6.639748939301193, 46.522044114930765 ], [ 6.640108518661525, 46.521719368312745 ], [ 6.640435886230861, 46.521637477270097 ], [ 6.640767713221847, 46.521723098594826 ], [ 6.640867261319143, 46.521991377871913 ], [ 6.640883852668692, 46.522487976442314 ], [ 6.640950218066889, 46.523355586040111 ], [ 6.64056032135248, 46.524017699832413 ], [ 6.640585208376804, 46.524383000539402 ], [ 6.641097394386798, 46.52570427378587 ], [ 6.641305612076031, 46.52673822617114 ], [ 6.641504776822254, 46.527398450531123 ], [ 6.642185175475436, 46.528350940484728 ], [ 6.643507006285263, 46.529197629430278 ], [ 6.645199690783777, 46.530302475975901 ], [ 6.645994131192103, 46.530838446747659 ], [ 6.64708230380386, 46.533363460883926 ] ] ] } },
{ "type": "Feature", "properties": { "number": 16 }, "geometry": { "type": "MultiLineString", "coordinates": [ [ [ 6.629596788421499, 46.517397968197251 ], [ 6.62848545741727, 46.517551979117464 ], [ 6.62808414344352, 46.517488250513772 ], [ 6.627250645190348, 46.5174422242535 ], [ 6.626941942133619, 46.517350171616016 ], [ 6.626009487445924, 46.516354943249056 ] ] ] } },
{ "type": "Feature", "properties": { "number": 12 }, "geometry": { "type": "MultiLineString", "coordinates": [ [ [ 6.608017100476695, 46.518712297059778 ], [ 6.610059372555221, 46.517211730513985 ], [ 6.611470193181771, 46.516666870076222 ], [ 6.615760239576788, 46.515507785154298 ], [ 6.617113475687969, 46.515527598779457 ], [ 6.618034827933879, 46.515339369048718 ], [ 6.61951762920464, 46.514606257566967 ], [ 6.619776759523802, 46.514507187689269 ], [ 6.620107870487176, 46.514764768995619 ], [ 6.620856469186978, 46.515775268484482 ], [ 6.622886323353748, 46.515884242797092 ], [ 6.623619853859876, 46.516436856642372 ], [ 6.624800819438016, 46.516670907193472 ], [ 6.625055908002895, 46.516599391854264 ], [ 6.626009487445924, 46.516354943249056 ], [ 6.626941942133619, 46.517350171616016 ], [ 6.627250645190348, 46.5174422242535 ], [ 6.62808414344352, 46.517488250513772 ], [ 6.62848545741727, 46.517551979117464 ], [ 6.630681662509873, 46.517247623318937 ] ] ] } },
{ "type": "Feature", "properties": { "number": 20 }, "geometry": { "type": "MultiLineString", "coordinates": [ [ [ 6.63494525826333, 46.525576676433914 ], [ 6.633732815016325, 46.526702740687654 ], [ 6.632705112265771, 46.528241087801483 ], [ 6.631677409515219, 46.530343106585519 ], [ 6.631453114715754, 46.530731327539847 ], [ 6.629887452711424, 46.532146504980609 ], [ 6.629476037878169, 46.532516017463372 ], [ 6.629556035206857, 46.532877665544042 ], [ 6.630013162799362, 46.533192140178372 ], [ 6.630378864873367, 46.533192140178372 ], [ 6.632195947053575, 46.532453121899174 ], [ 6.632744500164581, 46.532484569690375 ], [ 6.633224484136711, 46.532673256055219 ], [ 6.633487332502401, 46.533074212403889 ], [ 6.633441619743151, 46.533986180526263 ], [ 6.633350665687671, 46.535853133546702 ], [ 6.633491014257436, 46.536542742425844 ], [ 6.63382183588617, 46.537570243410094 ], [ 6.633892994297075, 46.538240961832997 ], [ 6.633389408648123, 46.540620141777097 ], [ 6.633111111315807, 46.541677521622326 ], [ 6.632757045525659, 46.542415554813964 ], [ 6.632889424278282, 46.543265370649635 ], [ 6.631764204880982, 46.544964962414106 ], [ 6.631720078630107, 46.545951308233619 ], [ 6.632051025511667, 46.547225943978347 ], [ 6.631764204880982, 46.548667460243017 ], [ 6.631521510501172, 46.549562698442308 ], [ 6.631720078630107, 46.5502151508786 ], [ 6.632646729898472, 46.5515200322222 ], [ 6.634421083101572, 46.553891227523856 ], [ 6.635093921749603, 46.554978543531909 ], [ 6.635834044262438, 46.559050001432958 ], [ 6.63579112256535, 46.559797268801987 ], [ 6.63550613483061, 46.560463517682734 ], [ 6.634480178985545, 46.561266924569672 ], [ 6.634337685118176, 46.562325052072914 ], [ 6.634138193703858, 46.563187214780342 ], [ 6.633739210875222, 46.563990581335041 ], [ 6.633853205969118, 46.565695246570513 ], [ 6.634537176532493, 46.567007998229968 ], [ 6.634622672852916, 46.567615380038845 ], [ 6.634389471475133, 46.568560797692669 ], [ 6.634543214294757, 46.569557351296773 ], [ 6.634400453105107, 46.570267007095438 ], [ 6.633905939655822, 46.571129366399433 ], [ 6.633435909922643, 46.571634244677441 ], [ 6.633054010764435, 46.572401650658861 ], [ 6.633024633906112, 46.572936808929875 ], [ 6.63317151819773, 46.573946527135163 ], [ 6.633391844635158, 46.575107679830573 ], [ 6.633626730252074, 46.576175152464707 ], [ 6.633906712555556, 46.576457822825098 ], [ 6.634169195965072, 46.576566079168664 ], [ 6.634562921079344, 46.576638249944288 ], [ 6.634921648405681, 46.576608178799447 ], [ 6.635254127391066, 46.576752520142605 ], [ 6.635455364671694, 46.576902875299815 ], [ 6.635534109694548, 46.577185541866768 ], [ 6.635481613012645, 46.577377994856455 ], [ 6.63500864414305, 46.578426670816505 ], [ 6.63500864414305, 46.578985123172721 ], [ 6.63513471594783, 46.579428029572355 ], [ 6.635540947318783, 46.579986471615229 ], [ 6.636213330277606, 46.580612305000884 ], [ 6.636731625475032, 46.581189990945241 ], [ 6.63756511781011, 46.582775426298241 ], [ 6.640139748044754, 46.584792665899045 ], [ 6.640934312116369, 46.586248881698509 ], [ 6.641880221725434, 46.587809069503237 ], [ 6.643090986025038, 46.589759241110471 ], [ 6.646004387620961, 46.590097263720715 ], [ 6.646609769770762, 46.590227271855653 ], [ 6.648842116448157, 46.591735343431331 ], [ 6.650204226285212, 46.592619365880587 ], [ 6.651087280896444, 46.592776194752382 ], [ 6.652238636469296, 46.593206487999964 ], [ 6.655450312540938, 46.59305380369026 ], [ 6.657025851745894, 46.592762314268164 ], [ 6.658239379166143, 46.592849330321435 ], [ 6.65903320418659, 46.593039620418494 ], [ 6.660214711193767, 46.591631457878528 ], [ 6.661913127516583, 46.590426244665721 ], [ 6.662762335677992, 46.590261318667771 ], [ 6.664091531061066, 46.590235945392777 ] ] ] } },
{ "type": "Feature", "properties": { "number": 21 }, "geometry": { "type": "MultiLineString", "coordinates": [ [ [ 6.693100197421335, 46.565288229056534 ], [ 6.688911466585295, 46.563848275981861 ], [ 6.687911895397664, 46.563287278625161 ], [ 6.685052824083921, 46.560854349255919 ], [ 6.684401748438217, 46.558499169706245 ], [ 6.683410981151277, 46.553924768584686 ], [ 6.682759905505573, 46.553009842086972 ], [ 6.680523602200764, 46.551725025647869 ], [ 6.677777761434101, 46.550323373024746 ], [ 6.675626381039602, 46.549155301520976 ], [ 6.674465767932043, 46.548863279717303 ], [ 6.673078693730326, 46.548843811541204 ], [ 6.671578388981529, 46.549213705693191 ], [ 6.670289060531906, 46.549905378286631 ], [ 6.668963156331269, 46.55025459790415 ], [ 6.667214091215532, 46.550099389462652 ], [ 6.665944608470241, 46.549400945983464 ], [ 6.665380393916778, 46.548741296667259 ], [ 6.664703336452622, 46.5471309426052 ], [ 6.662203038626329, 46.544178836062152 ], [ 6.66032751075621, 46.54255439400697 ], [ 6.659216086833178, 46.541909381474277 ], [ 6.6536612000005, 46.540786201435225 ], [ 6.652269683308787, 46.540202942263385 ], [ 6.650943393961998, 46.538812068183987 ], [ 6.649067584143111, 46.536694932825782 ], [ 6.647830778908562, 46.535742854664043 ], [ 6.647330167266007, 46.534426123317303 ], [ 6.64708230380386, 46.533363460883926 ], [ 6.645994131192103, 46.530838446747659 ], [ 6.642185175475436, 46.528350940484728 ], [ 6.641504776822254, 46.527398450531123 ], [ 6.641097394386798, 46.52570427378587 ], [ 6.64056032135248, 46.524017699832413 ], [ 6.640950218066889, 46.523355586040111 ], [ 6.640867261319143, 46.521991377871913 ], [ 6.640767713221847, 46.521723098594826 ], [ 6.640435886230861, 46.521637477270097 ], [ 6.640108518661525, 46.521719368312745 ], [ 6.639748939301193, 46.522044114930765 ], [ 6.639479952691467, 46.522161009382174 ], [ 6.638927822282032, 46.522136656392206 ], [ 6.638672911013667, 46.522125191062003 ], [ 6.638292886621793, 46.522228408751346 ], [ 6.638112875067748, 46.522524298373966 ], [ 6.638292886621793, 46.523116072784745 ], [ 6.63834288983125, 46.523418838595326 ], [ 6.638036863575498, 46.524134929880454 ], [ 6.637524812020881, 46.525126184324506 ], [ 6.637082191185534, 46.525412808744392 ], [ 6.636509387751556, 46.525520292511956 ], [ 6.63494525826333, 46.525576676433914 ] ] ] } },
{ "type": "Feature", "properties": { "number": 23 }, "geometry": { "type": "MultiLineString", "coordinates": [ [ [ 6.731494302170828, 46.538471120474362 ], [ 6.724131441758648, 46.540025428423327 ], [ 6.715549901002381, 46.541876568601353 ], [ 6.70910142432547, 46.541349630118383 ], [ 6.704079637545291, 46.540641634045748 ], [ 6.7022393554333, 46.542593964479202 ], [ 6.700586220654731, 46.542980131413067 ], [ 6.699681675209855, 46.543709550349341 ], [ 6.699432145431957, 46.544267334687952 ], [ 6.699619292765381, 46.545490149530025 ], [ 6.699276189320772, 46.545854843360949 ], [ 6.69625064076377, 46.546948910153347 ], [ 6.696001110985872, 46.547249238356635 ], [ 6.69625064076377, 46.548471986029718 ], [ 6.695845154874687, 46.548922465071314 ], [ 6.695002991874284, 46.549801960996426 ], [ 6.694884977096263, 46.550803374291476 ], [ 6.694857487191335, 46.551578478408821 ], [ 6.694321434045256, 46.552277953110114 ], [ 6.69333179746788, 46.552769470480058 ], [ 6.690294187525356, 46.55325848199368 ], [ 6.6890423026519, 46.55360523074868 ], [ 6.688381585635353, 46.554167198163931 ], [ 6.687981677967443, 46.55518350743413 ], [ 6.687686094038988, 46.555865021812998 ], [ 6.686955827862804, 46.55669000145177 ], [ 6.68605168878753, 46.557287804947087 ], [ 6.685477908220529, 46.55751496854851 ], [ 6.684193698592921, 46.557538629558827 ], [ 6.683410981151277, 46.553924768584686 ], [ 6.682759905505573, 46.553009842086972 ], [ 6.680523602200764, 46.551725025647869 ], [ 6.675626381039602, 46.549155301520976 ], [ 6.674465767932043, 46.548863279717303 ], [ 6.673078693730326, 46.548843811541204 ], [ 6.671578388981529, 46.549213705693191 ], [ 6.670289060531906, 46.549905378286631 ], [ 6.668963156331269, 46.55025459790415 ], [ 6.667214091215532, 46.550099389462652 ], [ 6.665944608470241, 46.549400945983464 ], [ 6.665380393916778, 46.548741296667259 ], [ 6.664703336452622, 46.5471309426052 ], [ 6.662203038626329, 46.544178836062152 ], [ 6.66032751075621, 46.54255439400697 ], [ 6.659216086833178, 46.541909381474277 ], [ 6.6536612000005, 46.540786201435225 ], [ 6.652269683308787, 46.540202942263385 ], [ 6.649067584143111, 46.536694932825782 ], [ 6.647830778908562, 46.535742854664043 ], [ 6.64708230380386, 46.533363460883926 ], [ 6.645994131192103, 46.530838446747659 ], [ 6.642185175475436, 46.528350940484728 ], [ 6.641504776822254, 46.527398450531123 ], [ 6.641097394386798, 46.52570427378587 ], [ 6.64056032135248, 46.524017699832413 ], [ 6.640950218066889, 46.523355586040111 ], [ 6.640867261319143, 46.521991377871913 ], [ 6.640767713221847, 46.521723098594826 ], [ 6.640435886230861, 46.521637477270097 ], [ 6.640108518661525, 46.521719368312745 ], [ 6.639748939301193, 46.522044114930765 ], [ 6.639479952691467, 46.522161009382174 ], [ 6.638672911013667, 46.522125191062003 ], [ 6.638292886621793, 46.522228408751346 ], [ 6.638112875067748, 46.522524298373966 ], [ 6.638292886621793, 46.523116072784745 ], [ 6.63834288983125, 46.523418838595326 ], [ 6.638036863575498, 46.524134929880454 ], [ 6.637524812020881, 46.525126184324506 ], [ 6.637082191185534, 46.525412808744392 ], [ 6.636509387751556, 46.525520292511956 ], [ 6.63494525826333, 46.525576676433914 ] ] ] } }
]
}
